[{"OBJECT_NAME":"FLOCK 4G-18","OBJECT_ID":"2025-009BZ","EPOCH":"2026-03-09T04:35:14.656704","MEAN_MOTION":15.27241676,"ECCENTRICITY":0.00041001,"INCLINATION":97.4054,"RA_OF_ASC_NODE":150.5008,"ARG_OF_PERICENTER":335.7331,"MEAN_ANOMALY":24.3715,"EPHEMERIS_TYPE":0,"CLASSIFICATION_TYPE":"U","NORAD_CAT_ID":62680,"ELEMENT_SET_NO":999,"REV_AT_EPOCH":12126,"BSTAR":0.0004431856,"MEAN_MOTION_DOT":0.00011766,"MEAN_MOTION_DDOT":0},{"OBJECT_NAME":"STARLINK-34056","OBJECT_ID":"2025-093F","EPOCH":"2026-03-09T09:19:15.252672","MEAN_MOTION":15.27569784,"ECCENTRICITY":4.948e-5,"INCLINATION":42.9951,"RA_OF_ASC_NODE":79.8164,"ARG_OF_PERICENTER":239.5372,"MEAN_ANOMALY":120.5431,"EPHEMERIS_TYPE":0,"CLASSIFICATION_TYPE":"U","NORAD_CAT_ID":63841,"ELEMENT_SET_NO":999,"REV_AT_EPOCH":4770,"BSTAR":0.0011262482,"MEAN_MOTION_DOT":0.0003085,"MEAN_MOTION_DDOT":0}]
